start=new Date('2021-10-19T00:00:00.000Z').valueOf();
sats=[{"MEAN_MOTION":"15.06394426","REF_FRAME":"TEME","EPHEMERIS_TYPE":"0","OBJECT_NAME":"STARLINK-2749","OBJECT_TYPE":"PAYLOAD","ECCENTRICITY":"0.00020930","GP_ID":"187538368","MEAN_MOTION_DOT":"-0.00003105","MEAN_MOTION_DDOT":"0.0000000000000","SITE":"AFETR","FILE":"3170620","MEAN_ELEMENT_THEORY":"SGP4","PERIAPSIS":"545.781","RA_OF_ASC_NODE":"151.7343","LAUNCH_DATE":"2021-05-09","CENTER_NAME":"EARTH","BSTAR":"-0.00018967000000","EPOCH":"2021-10-18T22:00:01.999584","COUNTRY_CODE":"US","PERIOD":"95.592","SEMIMAJOR_AXIS":"6925.366","TLE_LINE1":"1 48429U 21040B   21291.91668981 -.00003105  00000-0 -18967-3 0  9992","TLE_LINE2":"2 48429  53.0537 151.7343 0002093  61.3540 119.1245 15.06394426  3601","APOAPSIS":"548.680","RCS_SIZE":"LARGE","DECAY_DATE":null,"INCLINATION":"53.0537","REV_AT_EPOCH":"360","OBJECT_ID":"2021-040B","MEAN_ANOMALY":"119.1245","ARG_OF_PERICENTER":"61.3540","TIME_SYSTEM":"UTC","ELEMENT_SET_NO":"999","NORAD_CAT_ID":"48429","CLASSIFICATION_TYPE":"U"},{"TLE_LINE1":"1 48430U 21040C   21291.91668981 -.00008829  00000-0 -57432-3 0  9992","TLE_LINE2":"2 48430  53.0527 151.7345 0002207  69.9549 290.5385 15.06410599  3647","APOAPSIS":"548.709","RCS_SIZE":"LARGE","DECAY_DATE":null,"INCLINATION":"53.0527","REV_AT_EPOCH":"364","OBJECT_ID":"2021-040C","MEAN_ANOMALY":"290.5385","ARG_OF_PERICENTER":"69.9549","ELEMENT_SET_NO":"999","TIME_SYSTEM":"UTC","NORAD_CAT_ID":"48430","CLASSIFICATION_TYPE":"U","MEAN_MOTION":"15.06410599","EPHEMERIS_TYPE":"0","REF_FRAME":"TEME","OBJECT_NAME":"STARLINK-2729","OBJECT_TYPE":"PAYLOAD","ECCENTRICITY":"0.00022070","GP_ID":"187538814","MEAN_MOTION_DOT":"-0.00008829","MEAN_MOTION_DDOT":"0.0000000000000","SITE":"AFETR","FILE":"3170620","MEAN_ELEMENT_THEORY":"SGP4","PERIAPSIS":"545.653","RA_OF_ASC_NODE":"151.7345","LAUNCH_DATE":"2021-05-09","CENTER_NAME":"EARTH","BSTAR":"-0.00057432000000","EPOCH":"2021-10-18T22:00:01.999584","COUNTRY_CODE":"US","PERIOD":"95.591","SEMIMAJOR_AXIS":"6925.316"},{"TIME_SYSTEM":"UTC","ELEMENT_SET_NO":"999","MEAN_ANOMALY":"232.1248","ARG_OF_PERICENTER":"55.7501","CLASSIFICATION_TYPE":"U","NORAD_CAT_ID":"48431","APOAPSIS":"548.533","TLE_LINE1":"1 48431U 21040D   21291.91668981  .00001208  00000-0  99987-4 0  9997","TLE_LINE2":"2 48431  53.0528 146.7350 0001861  55.7501 232.1248 15.06389898  3664","OBJECT_ID":"2021-040D","REV_AT_EPOCH":"366","RCS_SIZE":"LARGE","DECAY_DATE":null,"INCLINATION":"53.0528","LAUNCH_DATE":"2021-05-09","CENTER_NAME":"EARTH","MEAN_ELEMENT_THEORY":"SGP4","PERIAPSIS":"545.956","RA_OF_ASC_NODE":"146.7350","PERIOD":"95.593","SEMIMAJOR_AXIS":"6925.380","EPOCH":"2021-10-18T22:00:01.999584","BSTAR":"0.00009998700000","COUNTRY_CODE":"US","OBJECT_NAME":"STARLINK-2700","OBJECT_TYPE":"PAYLOAD","MEAN_MOTION":"15.06389898","EPHEMERIS_TYPE":"0","REF_FRAME":"TEME","SITE":"AFETR","FILE":"3170620","ECCENTRICITY":"0.00018610","GP_ID":"187538480","MEAN_MOTION_DOT":"0.00001208","MEAN_MOTION_DDOT":"0.0000000000000"},{"ELEMENT_SET_NO":"999","TIME_SYSTEM":"UTC","MEAN_ANOMALY":"167.0450","ARG_OF_PERICENTER":"66.0294","CLASSIFICATION_TYPE":"U","NORAD_CAT_ID":"48432","APOAPSIS":"543.027","TLE_LINE2":"2 48432  53.0463 141.7505 0001586  66.0294 167.0450 15.08125884  3697","TLE_LINE1":"1 48432U 21040E   21291.91668981 -.01101344  00000-0 -76406-1 0  9991","REV_AT_EPOCH":"369","OBJECT_ID":"2021-040E","INCLINATION":"53.0463","DECAY_DATE":null,"RCS_SIZE":"LARGE","CENTER_NAME":"EARTH","LAUNCH_DATE":"2021-05-09","RA_OF_ASC_NODE":"141.7505","PERIAPSIS":"540.831","MEAN_ELEMENT_THEORY":"SGP4","PERIOD":"95.483","SEMIMAJOR_AXIS":"6920.064","COUNTRY_CODE":"US","BSTAR":"-0.07640600000000","EPOCH":"2021-10-18T22:00:01.999584","OBJECT_TYPE":"PAYLOAD","OBJECT_NAME":"STARLINK-2680","EPHEMERIS_TYPE":"0","REF_FRAME":"TEME","MEAN_MOTION":"15.08125884","FILE":"3170620","SITE":"AFETR","MEAN_MOTION_DOT":"-0.01101344","MEAN_MOTION_DDOT":"0.0000000000000","GP_ID":"187538255","ECCENTRICITY":"0.00015860"},{"CLASSIFICATION_TYPE":"U","NORAD_CAT_ID":"48433","TIME_SYSTEM":"UTC","ELEMENT_SET_NO":"999","MEAN_ANOMALY":"44.0227","ARG_OF_PERICENTER":"55.2658","OBJECT_ID":"2021-040F","REV_AT_EPOCH":"2602","INCLINATION":"53.0511","DECAY_DATE":null,"RCS_SIZE":"LARGE","APOAPSIS":"548.513","TLE_LINE2":"2 48433  53.0511 148.2388 0001789  55.2658  44.0227 15.06380129 26023","TLE_LINE1":"1 48433U 21040F   21291.58334491 -.00004870  00000-0 -30839-3 0  9998","SEMIMAJOR_AXIS":"6925.409","PERIOD":"95.593","COUNTRY_CODE":"US","EPOCH":"2021-10-18T14:00:01.000224","BSTAR":"-0.00030839000000","CENTER_NAME":"EARTH","LAUNCH_DATE":"2021-05-09","PERIAPSIS":"546.036","RA_OF_ASC_NODE":"148.2388","MEAN_ELEMENT_THEORY":"SGP4","FILE":"3170425","SITE":"AFETR","MEAN_MOTION_DOT":"-0.00004870","MEAN_MOTION_DDOT":"0.0000000000000","ECCENTRICITY":"0.00017890","GP_ID":"187512196","OBJECT_TYPE":"PAYLOAD","OBJECT_NAME":"STARLINK-2699","REF_FRAME":"TEME","EPHEMERIS_TYPE":"0","MEAN_MOTION":"15.06380129"},{"DECAY_DATE":null,"INCLINATION":"53.0629","RCS_SIZE":"LARGE","REV_AT_EPOCH":"361","OBJECT_ID":"2021-040G","TLE_LINE1":"1 48434U 21040G   21291.91668981 -.00010374  00000-0 -67843-3 0  9991","TLE_LINE2":"2 48434  53.0629 151.6900 0001932  60.8050 359.7486 15.06406278  3617","APOAPSIS":"548.532","NORAD_CAT_ID":"48434","CLASSIFICATION_TYPE":"U","ARG_OF_PERICENTER":"60.8050","MEAN_ANOMALY":"359.7486","TIME_SYSTEM":"UTC","ELEMENT_SET_NO":"999","MEAN_MOTION_DDOT":"0.0000000000000","MEAN_MOTION_DOT":"-0.00010374","ECCENTRICITY":"0.00019320","GP_ID":"187538706","FILE":"3170620","SITE":"AFETR","EPHEMERIS_TYPE":"0","REF_FRAME":"TEME","MEAN_MOTION":"15.06406278","OBJECT_TYPE":"PAYLOAD","OBJECT_NAME":"STARLINK-2692","EPOCH":"2021-10-18T22:00:01.999584","BSTAR":"-0.00067843000000","COUNTRY_CODE":"US","PERIOD":"95.592","SEMIMAJOR_AXIS":"6925.329","PERIAPSIS":"545.856","RA_OF_ASC_NODE":"151.6900","MEAN_ELEMENT_THEORY":"SGP4","LAUNCH_DATE":"2021-05-09","CENTER_NAME":"EARTH"},{"ARG_OF_PERICENTER":"75.9458","MEAN_ANOMALY":"284.1741","ELEMENT_SET_NO":"999","TIME_SYSTEM":"UTC","NORAD_CAT_ID":"48435","CLASSIFICATION_TYPE":"U","TLE_LINE2":"2 48435  53.0543 163.4888 0001891  75.9458 284.1741 15.04764021 25162","TLE_LINE1":"1 48435U 21040H   21291.12532829  .00001314  00000-0  11161-3 0  9990","APOAPSIS":"553.543","INCLINATION":"53.0543","DECAY_DATE":null,"RCS_SIZE":"LARGE","REV_AT_EPOCH":"2516","OBJECT_ID":"2021-040H","PERIAPSIS":"550.922","RA_OF_ASC_NODE":"163.4888","MEAN_ELEMENT_THEORY":"SGP4","CENTER_NAME":"EARTH","LAUNCH_DATE":"2021-05-09","COUNTRY_CODE":"US","BSTAR":"0.00011161000000","EPOCH":"2021-10-18T03:00:28.364256","PERIOD":"95.696","SEMIMAJOR_AXIS":"6930.367","EPHEMERIS_TYPE":"0","REF_FRAME":"TEME","MEAN_MOTION":"15.04764021","OBJECT_TYPE":"PAYLOAD","OBJECT_NAME":"STARLINK-2633","MEAN_MOTION_DOT":"0.00001314","MEAN_MOTION_DDOT":"0.0000000000000","GP_ID":"187505704","ECCENTRICITY":"0.00018910","FILE":"3170121","SITE":"AFETR"},{"OBJECT_NAME":"STARLINK-2639","OBJECT_TYPE":"PAYLOAD","MEAN_MOTION":"15.06402092","REF_FRAME":"TEME","EPHEMERIS_TYPE":"0","SITE":"AFETR","FILE":"3170121","ECCENTRICITY":"0.00017690","GP_ID":"187505254","MEAN_MOTION_DOT":"0.00002111","MEAN_MOTION_DDOT":"0.0000000000000","LAUNCH_DATE":"2021-05-09","CENTER_NAME":"EARTH","MEAN_ELEMENT_THEORY":"SGP4","RA_OF_ASC_NODE":"178.9727","PERIAPSIS":"545.982","PERIOD":"95.592","SEMIMAJOR_AXIS":"6925.342","BSTAR":"0.00016056000000","EPOCH":"2021-10-18T10:04:04.698912","COUNTRY_CODE":"US","APOAPSIS":"548.432","TLE_LINE1":"1 48436U 21040J   21291.41949883  .00002111  00000-0  16056-3 0  9999","TLE_LINE2":"2 48436  53.0539 178.9727 0001769  70.9556 289.1624 15.06402092 24971","REV_AT_EPOCH":"2497","OBJECT_ID":"2021-040J","RCS_SIZE":"LARGE","DECAY_DATE":null,"INCLINATION":"53.0539","ELEMENT_SET_NO":"999","TIME_SYSTEM":"UTC","ARG_OF_PERICENTER":"70.9556","MEAN_ANOMALY":"289.1624","CLASSIFICATION_TYPE":"U","NORAD_CAT_ID":"48436"},{"MEAN_MOTION_DOT":"0.00003360","MEAN_MOTION_DDOT":"0.0000000000000","GP_ID":"187505814","ECCENTRICITY":"0.00021170","FILE":"3170121","SITE":"AFETR","EPHEMERIS_TYPE":"0","REF_FRAME":"TEME","MEAN_MOTION":"15.04783015","OBJECT_TYPE":"PAYLOAD","OBJECT_NAME":"STARLINK-2642","BSTAR":"0.00025493000000","EPOCH":"2021-10-18T10:17:23.004672","COUNTRY_CODE":"US","SEMIMAJOR_AXIS":"6930.309","PERIOD":"95.695","RA_OF_ASC_NODE":"188.7797","PERIAPSIS":"550.707","MEAN_ELEMENT_THEORY":"SGP4","LAUNCH_DATE":"2021-05-09","CENTER_NAME":"EARTH","DECAY_DATE":null,"INCLINATION":"53.0548","RCS_SIZE":"MEDIUM","OBJECT_ID":"2021-040K","REV_AT_EPOCH":"2484","TLE_LINE1":"1 48437U 21040K   21291.42873848  .00003360  00000-0  25493-3 0  9990","TLE_LINE2":"2 48437  53.0548 188.7797 0002117  66.8587 293.2624 15.04783015 24841","APOAPSIS":"553.641","NORAD_CAT_ID":"48437","CLASSIFICATION_TYPE":"U","ARG_OF_PERICENTER":"66.8587","MEAN_ANOMALY":"293.2624","ELEMENT_SET_NO":"999","TIME_SYSTEM":"UTC"},{"PERIAPSIS":"545.848","RA_OF_ASC_NODE":"178.9960","MEAN_ELEMENT_THEORY":"SGP4","LAUNCH_DATE":"2021-05-09","CENTER_NAME":"EARTH","EPOCH":"2021-10-18T09:58:45.886368","BSTAR":"0.00023545000000","COUNTRY_CODE":"US","SEMIMAJOR_AXIS":"6925.323","PERIOD":"95.592","EPHEMERIS_TYPE":"0","REF_FRAME":"TEME","MEAN_MOTION":"15.06408400","OBJECT_TYPE":"PAYLOAD","OBJECT_NAME":"STARLINK-2640","MEAN_MOTION_DDOT":"0.0000000000000","MEAN_MOTION_DOT":"0.00003228","GP_ID":"187505142","ECCENTRICITY":"0.00019340","FILE":"3170121","SITE":"AFETR","ARG_OF_PERICENTER":"65.2234","MEAN_ANOMALY":"294.8956","ELEMENT_SET_NO":"999","TIME_SYSTEM":"UTC","NORAD_CAT_ID":"48438","CLASSIFICATION_TYPE":"U","TLE_LINE1":"1 48438U 21040L   21291.41580887  .00003228  00000-0  23545-3 0  9997","TLE_LINE2":"2 48438  53.0549 178.9960 0001934  65.2234 294.8956 15.06408400 24977","APOAPSIS":"548.527","DECAY_DATE":null,"INCLINATION":"53.0549","RCS_SIZE":"LARGE","OBJECT_ID":"2021-040L","REV_AT_EPOCH":"2497"}];
